{"type": "FeatureCollection", "features": [{"type": "Feature", "properties": {"norad_id": 50032, "name": "COSMOS 1408 DEB", "group": "cosmos-1408-debris", "lat": -41.65758531471126, "lon": -125.11988803720617, "alt_km": 428.7378354232569, "timestamp": "2025-12-22T18:58:53.705065+00:00", "meta": {"OBJECT_NAME": "COSMOS 1408 DEB", "OBJECT_ID": "1982-092RU", "EPOCH": "2025-12-22T04:02:31.933824", "MEAN_MOTION": 15.45783536, "ECCENTRICITY": 0.00162028, "INCLINATION": 82.5632, "RA_OF_ASC_NODE": 48.8449, "ARG_OF_PERICENTER": 173.5124, "MEAN_ANOMALY": 186.6338, "EPHEMERIS_TYPE": 0, "CLASSIFICATION_TYPE": "U", "NORAD_CAT_ID": 50032, "ELEMENT_SET_NO": 999, "REV_AT_EPOCH": 22749, "BSTAR": 0.00010470664, "MEAN_MOTION_DOT": 5.134e-05, "MEAN_MOTION_DDOT": 0}, "tle": {"line1": "1 50032U 82092RU  25356.16842516  .00005134  00000+0  10471-3 0  9993", "line2": "2 50032  82.5632  48.8449 0016202 173.5124 186.6338 15.45783536227495"}}, "geometry": {"type": "Point", "coordinates": [-125.11988803720617, -41.65758531471126]}}, {"type": "Feature", "properties": {"norad_id": 50058, "name": "COSMOS 1408 DEB", "group": "cosmos-1408-debris", "lat": 17.211461989766878, "lon": 61.12169491290723, "alt_km": 367.4430566250421, "timestamp": "2025-12-22T18:58:53.705086+00:00", "meta": {"OBJECT_NAME": "COSMOS 1408 DEB", "OBJECT_ID": "1982-092SW", "EPOCH": "2025-12-22T05:05:37.437504", "MEAN_MOTION": 15.64648266, "ECCENTRICITY": 0.00160261, "INCLINATION": 82.6121, "RA_OF_ASC_NODE": 59.4243, "ARG_OF_PERICENTER": 66.9716, "MEAN_ANOMALY": 293.3232, "EPHEMERIS_TYPE": 0, "CLASSIFICATION_TYPE": "U", "NORAD_CAT_ID": 50058, "ELEMENT_SET_NO": 999, "REV_AT_EPOCH": 22952, "BSTAR": 0.00035457608, "MEAN_MOTION_DOT": 0.00034625, "MEAN_MOTION_DDOT": 0}, "tle": {"line1": "1 50058U 82092SW  25356.21223886  .00034625  00000+0  35458-3 0  9999", "line2": "2 50058  82.6121  59.4243 0016026  66.9716 293.3232 15.64648266229529"}}, "geometry": {"type": "Point", "coordinates": [61.12169491290723, 17.211461989766878]}}, {"type": "Feature", "properties": {"norad_id": 50404, "name": "COSMOS 1408 DEB", "group": "cosmos-1408-debris", "lat": 53.26016767719935, "lon": 14.154908496060196, "alt_km": 423.7066187936598, "timestamp": "2025-12-22T18:58:53.705100+00:00", "meta": {"OBJECT_NAME": "COSMOS 1408 DEB", "OBJECT_ID": "1982-092ADS", "EPOCH": "2025-12-21T15:28:45.909120", "MEAN_MOTION": 15.15078556, "ECCENTRICITY": 0.0168442, "INCLINATION": 82.2035, "RA_OF_ASC_NODE": 205.9075, "ARG_OF_PERICENTER": 168.3631, "MEAN_ANOMALY": 192.1574, "EPHEMERIS_TYPE": 0, "CLASSIFICATION_TYPE": "U", "NORAD_CAT_ID": 50404, "ELEMENT_SET_NO": 999, "REV_AT_EPOCH": 21328, "BSTAR": 0.0028703, "MEAN_MOTION_DOT": 0.00077658, "MEAN_MOTION_DDOT": 0}, "tle": {"line1": "1 50404U 82092ADS 25355.64497580  .00077658  00000+0  28703-2 0  9991", "line2": "2 50404  82.2035 205.9075 0168442 168.3631 192.1574 15.15078556213284"}}, "geometry": {"type": "Point", "coordinates": [14.154908496060196, 53.26016767719935]}}, {"type": "Feature", "properties": {"norad_id": 50621, "name": "COSMOS 1408 DEB", "group": "cosmos-1408-debris", "lat": 55.59037739965684, "lon": -127.26997775808903, "alt_km": 371.12076450898167, "timestamp": "2025-12-22T18:58:53.705112+00:00", "meta": {"OBJECT_NAME": "COSMOS 1408 DEB", "OBJECT_ID": "1982-092ALR", "EPOCH": "2025-12-22T04:34:23.413728", "MEAN_MOTION": 15.57122494, "ECCENTRICITY": 0.00290745, "INCLINATION": 82.5697, "RA_OF_ASC_NODE": 64.3395, "ARG_OF_PERICENTER": 118.4206, "MEAN_ANOMALY": 241.9985, "EPHEMERIS_TYPE": 0, "CLASSIFICATION_TYPE": "U", "NORAD_CAT_ID": 50621, "ELEMENT_SET_NO": 999, "REV_AT_EPOCH": 22397, "BSTAR": 0.0003920223, "MEAN_MOTION_DOT": 0.00029066, "MEAN_MOTION_DDOT": 0}, "tle": {"line1": "1 50621U 82092ALR 25356.19054877  .00029066  00000+0  39202-3 0  9998", "line2": "2 50621  82.5697  64.3395 0029074 118.4206 241.9985 15.57122494223978"}}, "geometry": {"type": "Point", "coordinates": [-127.26997775808903, 55.59037739965684]}}]}